[
  {
    "State": "TX",
    "City": "Irving",
    "Zip": 75038
  },
  {
    "State": "TX",
    "City": "Spring",
    "Zip": 77388
  },
  {
    "State": "TX",
    "City": "Austin",
    "Zip": 78749
  },
  {
    "State": "TX",
    "City": "Lakeway",
    "Zip": 78734
  },
  {
    "State": "TX",
    "City": "Round Rock",
    "Zip": 78665
  },
  {
    "State": "TX",
    "City": "Austin",
    "Zip": 78745
  },
  {
    "State": "TX",
    "City": "Mcallen",
    "Zip": 78504
  },
  {
    "State": "TX",
    "City": "Edinburg",
    "Zip": 78539
  },
  {
    "State": "TX",
    "City": "Tomball",
    "Zip": 77375
  },
  {
    "State": "TX",
    "City": "Dallas",
    "Zip": 75237
  },
  {
    "State": "TX",
    "City": "Mckinney",
    "Zip": 75070
  },
  {
    "State": "TX",
    "City": "Austin",
    "Zip": 78754
  },
  {
    "State": "TX",
    "City": "Hurst",
    "Zip": 76053
  },
  {
    "State": "TX",
    "City": "Austin",
    "Zip": 78717
  },
  {
    "State": "TX",
    "City": "Kingsville",
    "Zip": 78363
  },
  {
    "State": "TX",
    "City": "Houston",
    "Zip": 77004
  },
  {
    "State": "TX",
    "City": "Elsa",
    "Zip": 78543
  },
  {
    "State": "TX",
    "City": "Bridge City",
    "Zip": 77611
  },
  {
    "State": "TX",
    "City": "Round Rock",
    "Zip": 78681
  },
  {
    "State": "TX",
    "City": "Tyler",
    "Zip": 75701
  },
  {
    "State": "TX",
    "City": "Brownsville",
    "Zip": 78521
  },
  {
    "State": "TX",
    "City": "Bastrop",
    "Zip": 78602
  },
  {
    "State": "TX",
    "City": "San Antonio",
    "Zip": 78250
  },
  {
    "State": "TX",
    "City": "Allen",
    "Zip": 75002
  },
  {
    "State": "TX",
    "City": "Beaumont",
    "Zip": 77707
  },
  {
    "State": "TX",
    "City": "San Antonio",
    "Zip": 78229
  },
  {
    "State": "TX",
    "City": "Cypress",
    "Zip": 77429
  },
  {
    "State": "TX",
    "City": "Atlanta",
    "Zip": 75551
  },
  {
    "State": "TX",
    "City": "Austin",
    "Zip": 78704
  },
  {
    "State": "TX",
    "City": "Plainview",
    "Zip": 79072
  },
  {
    "State": "TX",
    "City": "Amarillo",
    "Zip": 79119
  },
  {
    "State": "TX",
    "City": "Flower Mound",
    "Zip": 75028
  },
  {
    "State": "TX",
    "City": "Houston",
    "Zip": 77079
  },
  {
    "State": "TX",
    "City": "Plano",
    "Zip": 75074
  },
  {
    "State": "TX",
    "City": "Katy",
    "Zip": 77493
  },
  {
    "State": "TX",
    "City": "Brownsville",
    "Zip": 78521
  },
  {
    "State": "TX",
    "City": "Katy",
    "Zip": 77494
  },
  {
    "State": "TX",
    "City": "San Antonio",
    "Zip": 78261
  },
  {
    "State": "TX",
    "City": "Corpus Christi",
    "Zip": 78404
  },
  {
    "State": "TX",
    "City": "Round Rock",
    "Zip": 78681
  },
  {
    "State": "TX",
    "City": "San Antonio",
    "Zip": 78256
  },
  {
    "State": "TX",
    "City": "Dallas",
    "Zip": 75202
  },
  {
    "State": "TX",
    "City": "Corous Christi",
    "Zip": 78413
  },
  {
    "State": "TX",
    "City": "Brownsville",
    "Zip": 78526
  },
  {
    "State": "TX",
    "City": "Prosper",
    "Zip": 75078
  },
  {
    "State": "TX",
    "City": "North Richland Hills",
    "Zip": 76180
  },
  {
    "State": "TX",
    "City": "Lewisville",
    "Zip": 75067
  },
  {
    "State": "TX",
    "City": "Dallas",
    "Zip": 75214
  },
  {
    "State": "TX",
    "City": "Houston",
    "Zip": 77027
  },
  {
    "State": "TX",
    "City": "Fort Worth",
    "Zip": 76133
  },
  {
    "State": "TX",
    "City": "Port Arthur",
    "Zip": 77642
  },
  {
    "State": "TX",
    "City": "Lumberton",
    "Zip": 77657
  },
  {
    "State": "FL",
    "City": "Hallandale Beach",
    "Zip": 33009
  },
  {
    "State": "FL",
    "City": "Miami",
    "Zip": 33155
  }
]
